[{"OBJECT_NAME":"IHI-SAT2","OBJECT_ID":"2025-276DL","EPOCH":"2026-03-09T17:30:40.180608","MEAN_MOTION":15.20112566,"ECCENTRICITY":0.00018696,"INCLINATION":97.4302,"RA_OF_ASC_NODE":144.214,"ARG_OF_PERICENTER":154.4631,"MEAN_ANOMALY":205.6697,"EPHEMERIS_TYPE":0,"CLASSIFICATION_TYPE":"U","NORAD_CAT_ID":66772,"ELEMENT_SET_NO":999,"REV_AT_EPOCH":1533,"BSTAR":0.00038428592,"MEAN_MOTION_DOT":8.239e-5,"MEAN_MOTION_DDOT":0},{"OBJECT_NAME":"LEMUR-2-LAILA","OBJECT_ID":"2025-276DQ","EPOCH":"2026-03-09T17:30:24.523200","MEAN_MOTION":15.2007121,"ECCENTRICITY":0.00022825,"INCLINATION":97.4243,"RA_OF_ASC_NODE":144.1425,"ARG_OF_PERICENTER":132.0154,"MEAN_ANOMALY":228.1276,"EPHEMERIS_TYPE":0,"CLASSIFICATION_TYPE":"U","NORAD_CAT_ID":66776,"ELEMENT_SET_NO":999,"REV_AT_EPOCH":1533,"BSTAR":0.00035559412,"MEAN_MOTION_DOT":7.609e-5,"MEAN_MOTION_DDOT":0}]
